STARLINK-35640          
1 66536U 25265W   25342.25003472 -.02000939  00000+0 -29712-1 0  9991
2 66536  43.0005  80.2350 0001307 264.2592 357.0125 15.57933450  4255
STARLINK-35582          
1 66537U 25265X   25342.25003472 -.01990085  00000+0 -29532-1 0  9991
2 66537  43.0005  80.2297 0001314 268.9179 354.2691 15.57929077  4275
STARLINK-35577          
1 66538U 25265Y   25342.25003472 -.01992930  00000+0 -29579-1 0  9994
2 66538  43.0004  80.2247 0001386 265.8828 359.2242 15.57929359  4276
STARLINK-35697          
1 66539U 25265Z   25342.25003472 -.01985760  00000+0 -29464-1 0  9991
2 66539  43.0006  80.2195 0001263 268.1851 358.8405 15.57924906  4276
STARLINK-35818          
1 66540U 25265AA  25342.25003472 -.01985723  00000+0 -29463-1 0  9991
2 66540  43.0008  80.2153 0001276 268.0569   0.8846 15.57925253  4272
STARLINK-35796          
1 66541U 25265AB  25342.25003472 -.01986294  00000+0 -29472-1 0  9996
2 66541  43.0007  80.2103 0001277 263.8519   7.0074 15.57925963  4276
STARLINK-35833          
1 66542U 25265AC  25342.25003472 -.01995978  00000+0 -29630-1 0  9992
2 66542  43.0004  80.2054 0001348 265.2100   7.5648 15.57931077  4275
STARLINK-35315          
1 66543U 25265AD  25342.25003472 -.01999106  00000+0 -29680-1 0  9995
2 66543  43.0006  80.2004 0001404 267.4143   7.2761 15.57932878  4168
STARLINK-35728          
1 66544U 25265AE  25342.25003472 -.01994704  00000+0 -29609-1 0  9996
2 66544  43.0001  80.1954 0001396 265.2248  11.3849 15.57930009  4278
SHIJIAN-30A             
1 66545U 25266A   25342.33892356  .00012707  00000+0  67615-3 0  9996
2 66545  51.7996 353.4787 0012799 340.4731  19.5754 15.15512760  2918
SHIJIAN-30B             
1 66546U 25266B   25342.33966285  .00014912  00000+0  78892-3 0  9999
2 66546  51.7978 353.4808 0010464 343.5769  16.4867 15.15601642  2914
SHIJIAN-30C             
1 66547U 25266C   25342.27440349  .00012968  00000+0  68804-3 0  9992
2 66547  51.7987 353.7954 0011384 335.5971  24.4466 15.15611445  2903
