CCSDS_OMM_VERS = 2.0
CREATION_DATE  = 
ORIGINATOR     = 

OBJECT_NAME    = STARLINK-35640
OBJECT_ID      = 2025-265W
CENTER_NAME    = EARTH
REF_FRAME      = TEME
TIME_SYSTEM    = UTC
MEAN_ELEMENT_THEORY = SGP/SGP4

EPOCH          = 2025-12-08T06:00:02.999808
MEAN_MOTION    = 15.57933450
ECCENTRICITY   = .00013074
INCLINATION    = 43.0005
RA_OF_ASC_NODE = 80.2350
ARG_OF_PERICENTER = 264.2592
MEAN_ANOMALY   = 357.0125

EPHEMERIS_TYPE = 0
CLASSIFICATION_TYPE = U
NORAD_CAT_ID   = 66536
ELEMENT_SET_NO = 999
REV_AT_EPOCH   = 425
BSTAR          = -.29711655E-1
MEAN_MOTION_DOT = -.2000939E-1
MEAN_MOTION_DDOT = 0

CCSDS_OMM_VERS = 2.0
CREATION_DATE  = 
ORIGINATOR     = 

OBJECT_NAME    = STARLINK-35582
OBJECT_ID      = 2025-265X
CENTER_NAME    = EARTH
REF_FRAME      = TEME
TIME_SYSTEM    = UTC
MEAN_ELEMENT_THEORY = SGP/SGP4

EPOCH          = 2025-12-08T06:00:02.999808
MEAN_MOTION    = 15.57929077
ECCENTRICITY   = .00013142
INCLINATION    = 43.0005
RA_OF_ASC_NODE = 80.2297
ARG_OF_PERICENTER = 268.9179
MEAN_ANOMALY   = 354.2691

EPHEMERIS_TYPE = 0
CLASSIFICATION_TYPE = U
NORAD_CAT_ID   = 66537
ELEMENT_SET_NO = 999
REV_AT_EPOCH   = 427
BSTAR          = -.2953238E-1
MEAN_MOTION_DOT = -.1990085E-1
MEAN_MOTION_DDOT = 0

CCSDS_OMM_VERS = 2.0
CREATION_DATE  = 
ORIGINATOR     = 

OBJECT_NAME    = STARLINK-35577
OBJECT_ID      = 2025-265Y
CENTER_NAME    = EARTH
REF_FRAME      = TEME
TIME_SYSTEM    = UTC
MEAN_ELEMENT_THEORY = SGP/SGP4

EPOCH          = 2025-12-08T06:00:02.999808
MEAN_MOTION    = 15.57929359
ECCENTRICITY   = .00013864
INCLINATION    = 43.0004
RA_OF_ASC_NODE = 80.2247
ARG_OF_PERICENTER = 265.8828
MEAN_ANOMALY   = 359.2242

EPHEMERIS_TYPE = 0
CLASSIFICATION_TYPE = U
NORAD_CAT_ID   = 66538
ELEMENT_SET_NO = 999
REV_AT_EPOCH   = 427
BSTAR          = -.29579435E-1
MEAN_MOTION_DOT = -.199293E-1
MEAN_MOTION_DDOT = 0

CCSDS_OMM_VERS = 2.0
CREATION_DATE  = 
ORIGINATOR     = 

OBJECT_NAME    = STARLINK-35697
OBJECT_ID      = 2025-265Z
CENTER_NAME    = EARTH
REF_FRAME      = TEME
TIME_SYSTEM    = UTC
MEAN_ELEMENT_THEORY = SGP/SGP4

EPOCH          = 2025-12-08T06:00:02.999808
MEAN_MOTION    = 15.57924906
ECCENTRICITY   = .00012638
INCLINATION    = 43.0006
RA_OF_ASC_NODE = 80.2195
ARG_OF_PERICENTER = 268.1851
MEAN_ANOMALY   = 358.8405

EPHEMERIS_TYPE = 0
CLASSIFICATION_TYPE = U
NORAD_CAT_ID   = 66539
ELEMENT_SET_NO = 999
REV_AT_EPOCH   = 427
BSTAR          = -.29464376E-1
MEAN_MOTION_DOT = -.198576E-1
MEAN_MOTION_DDOT = 0

CCSDS_OMM_VERS = 2.0
CREATION_DATE  = 
ORIGINATOR     = 

OBJECT_NAME    = STARLINK-35818
OBJECT_ID      = 2025-265AA
CENTER_NAME    = EARTH
REF_FRAME      = TEME
TIME_SYSTEM    = UTC
MEAN_ELEMENT_THEORY = SGP/SGP4

EPOCH          = 2025-12-08T06:00:02.999808
MEAN_MOTION    = 15.57925253
ECCENTRICITY   = .00012764
INCLINATION    = 43.0008
RA_OF_ASC_NODE = 80.2153
ARG_OF_PERICENTER = 268.0569
MEAN_ANOMALY   = 0.8846

EPHEMERIS_TYPE = 0
CLASSIFICATION_TYPE = U
NORAD_CAT_ID   = 66540
ELEMENT_SET_NO = 999
REV_AT_EPOCH   = 427
BSTAR          = -.29463218E-1
MEAN_MOTION_DOT = -.1985723E-1
MEAN_MOTION_DDOT = 0

CCSDS_OMM_VERS = 2.0
CREATION_DATE  = 
ORIGINATOR     = 

OBJECT_NAME    = STARLINK-35796
OBJECT_ID      = 2025-265AB
CENTER_NAME    = EARTH
REF_FRAME      = TEME
TIME_SYSTEM    = UTC
MEAN_ELEMENT_THEORY = SGP/SGP4

EPOCH          = 2025-12-08T06:00:02.999808
MEAN_MOTION    = 15.57925963
ECCENTRICITY   = .00012775
INCLINATION    = 43.0007
RA_OF_ASC_NODE = 80.2103
ARG_OF_PERICENTER = 263.8519
MEAN_ANOMALY   = 7.0074

EPHEMERIS_TYPE = 0
CLASSIFICATION_TYPE = U
NORAD_CAT_ID   = 66541
ELEMENT_SET_NO = 999
REV_AT_EPOCH   = 427
BSTAR          = -.29472086E-1
MEAN_MOTION_DOT = -.1986294E-1
MEAN_MOTION_DDOT = 0

CCSDS_OMM_VERS = 2.0
CREATION_DATE  = 
ORIGINATOR     = 

OBJECT_NAME    = STARLINK-35833
OBJECT_ID      = 2025-265AC
CENTER_NAME    = EARTH
REF_FRAME      = TEME
TIME_SYSTEM    = UTC
MEAN_ELEMENT_THEORY = SGP/SGP4

EPOCH          = 2025-12-08T06:00:02.999808
MEAN_MOTION    = 15.57931077
ECCENTRICITY   = .00013481
INCLINATION    = 43.0004
RA_OF_ASC_NODE = 80.2054
ARG_OF_PERICENTER = 265.2100
MEAN_ANOMALY   = 7.5648

EPHEMERIS_TYPE = 0
CLASSIFICATION_TYPE = U
NORAD_CAT_ID   = 66542
ELEMENT_SET_NO = 999
REV_AT_EPOCH   = 427
BSTAR          = -.29629661E-1
MEAN_MOTION_DOT = -.1995978E-1
MEAN_MOTION_DDOT = 0

CCSDS_OMM_VERS = 2.0
CREATION_DATE  = 
ORIGINATOR     = 

OBJECT_NAME    = STARLINK-35315
OBJECT_ID      = 2025-265AD
CENTER_NAME    = EARTH
REF_FRAME      = TEME
TIME_SYSTEM    = UTC
MEAN_ELEMENT_THEORY = SGP/SGP4

EPOCH          = 2025-12-08T06:00:02.999808
MEAN_MOTION    = 15.57932878
ECCENTRICITY   = .00014047
INCLINATION    = 43.0006
RA_OF_ASC_NODE = 80.2004
ARG_OF_PERICENTER = 267.4143
MEAN_ANOMALY   = 7.2761

EPHEMERIS_TYPE = 0
CLASSIFICATION_TYPE = U
NORAD_CAT_ID   = 66543
ELEMENT_SET_NO = 999
REV_AT_EPOCH   = 416
BSTAR          = -.29680008E-1
MEAN_MOTION_DOT = -.1999106E-1
MEAN_MOTION_DDOT = 0

CCSDS_OMM_VERS = 2.0
CREATION_DATE  = 
ORIGINATOR     = 

OBJECT_NAME    = STARLINK-35728
OBJECT_ID      = 2025-265AE
CENTER_NAME    = EARTH
REF_FRAME      = TEME
TIME_SYSTEM    = UTC
MEAN_ELEMENT_THEORY = SGP/SGP4

EPOCH          = 2025-12-08T06:00:02.999808
MEAN_MOTION    = 15.57930009
ECCENTRICITY   = .00013965
INCLINATION    = 43.0001
RA_OF_ASC_NODE = 80.1954
ARG_OF_PERICENTER = 265.2248
MEAN_ANOMALY   = 11.3849

EPHEMERIS_TYPE = 0
CLASSIFICATION_TYPE = U
NORAD_CAT_ID   = 66544
ELEMENT_SET_NO = 999
REV_AT_EPOCH   = 427
BSTAR          = -.29608658E-1
MEAN_MOTION_DOT = -.1994704E-1
MEAN_MOTION_DDOT = 0

CCSDS_OMM_VERS = 2.0
CREATION_DATE  = 
ORIGINATOR     = 

OBJECT_NAME    = SHIJIAN-30A
OBJECT_ID      = 2025-266A
CENTER_NAME    = EARTH
REF_FRAME      = TEME
TIME_SYSTEM    = UTC
MEAN_ELEMENT_THEORY = SGP/SGP4

EPOCH          = 2025-12-08T08:08:02.995584
MEAN_MOTION    = 15.15512760
ECCENTRICITY   = .00127993
INCLINATION    = 51.7996
RA_OF_ASC_NODE = 353.4787
ARG_OF_PERICENTER = 340.4731
MEAN_ANOMALY   = 19.5754

EPHEMERIS_TYPE = 0
CLASSIFICATION_TYPE = U
NORAD_CAT_ID   = 66545
ELEMENT_SET_NO = 999
REV_AT_EPOCH   = 291
BSTAR          = .67614531E-3
MEAN_MOTION_DOT = .12707E-3
MEAN_MOTION_DDOT = 0

CCSDS_OMM_VERS = 2.0
CREATION_DATE  = 
ORIGINATOR     = 

OBJECT_NAME    = SHIJIAN-30B
OBJECT_ID      = 2025-266B
CENTER_NAME    = EARTH
REF_FRAME      = TEME
TIME_SYSTEM    = UTC
MEAN_ELEMENT_THEORY = SGP/SGP4

EPOCH          = 2025-12-08T08:09:06.870240
MEAN_MOTION    = 15.15601642
ECCENTRICITY   = .00104646
INCLINATION    = 51.7978
RA_OF_ASC_NODE = 353.4808
ARG_OF_PERICENTER = 343.5769
MEAN_ANOMALY   = 16.4867

EPHEMERIS_TYPE = 0
CLASSIFICATION_TYPE = U
NORAD_CAT_ID   = 66546
ELEMENT_SET_NO = 999
REV_AT_EPOCH   = 291
BSTAR          = .78891908E-3
MEAN_MOTION_DOT = .14912E-3
MEAN_MOTION_DDOT = 0

CCSDS_OMM_VERS = 2.0
CREATION_DATE  = 
ORIGINATOR     = 

OBJECT_NAME    = SHIJIAN-30C
OBJECT_ID      = 2025-266C
CENTER_NAME    = EARTH
REF_FRAME      = TEME
TIME_SYSTEM    = UTC
MEAN_ELEMENT_THEORY = SGP/SGP4

EPOCH          = 2025-12-08T06:35:08.461536
MEAN_MOTION    = 15.15611445
ECCENTRICITY   = .00113845
INCLINATION    = 51.7987
RA_OF_ASC_NODE = 353.7954
ARG_OF_PERICENTER = 335.5971
MEAN_ANOMALY   = 24.4466

EPHEMERIS_TYPE = 0
CLASSIFICATION_TYPE = U
NORAD_CAT_ID   = 66547
ELEMENT_SET_NO = 999
REV_AT_EPOCH   = 290
BSTAR          = .68804431E-3
MEAN_MOTION_DOT = .12968E-3
MEAN_MOTION_DDOT = 0

